{
    "week": 287,
    "satellites": [
        {
            "Name": "GSAT0226 (GALILEO 31)",
            "Line1": "1 61183U 24167B   24278.53704925  .00000006  00000+0  00000+0 0  9991",
            "Line2": "2 61183  55.4090 238.3638 0032528  98.1835 216.1601  1.71379623   287",
            "SatelliteNumber": "61183",
            "Classification": "U",
            "LaunchYear": "24",
            "LaunchNumber": "167",
            "PieceOfLaunch": "B",
            "EpochYear": "24",
            "EpochDay": 278.53704925,
            "FirstDerivativeMeanMotion": 6e-08,
            "SecondDerivativeMeanMotion": "00000+0",
            "BSTAR": "00000+0",
            "SetNumber": "999",
            "Inclination": 55.409,
            "RAAN": 238.3638,
            "Eccentricity": 0.0032528,
            "ArgumentOfPerigee": 98.1835,
            "MeanAnomaly": 216.1601,
            "MeanMotion": 1.71379623,
            "RevolutionNumber": "28"
        }
    ]
}